{
  "type": "FeatureCollection",
  "features": [
    {
      "type": "Feature",
      "properties": {
        "norad_id": 66828,
        "name": "STARLINK-35982",
        "group": "last-30-days",
        "lat": -69.28565784144628,
        "lon": 110.11403781558374,
        "alt_km": 389.9050380169974,
        "timestamp": "2025-12-17T19:34:06.801526+00:00",
        "meta_object_name": "STARLINK-35982",
        "meta_object_id": "2025-280H",
        "meta_epoch": "2025-12-17T08:00:04.999680",
        "meta_mean_motion": 15.62748066,
        "meta_eccentricity": 0.00036756,
        "meta_inclination": 69.9992,
        "meta_ra_of_asc_node": 185.8658,
        "meta_arg_of_pericenter": 271.6148,
        "meta_mean_anomaly": 174.9549,
        "meta_ephemeris_type": 0,
        "meta_classification_type": "U",
        "meta_norad_cat_id": 66828,
        "meta_element_set_no": 999,
        "meta_rev_at_epoch": 363,
        "meta_bstar": -0.024214862,
        "meta_mean_motion_dot": -0.01930957,
        "meta_mean_motion_ddot": 0,
        "tle_line1": "1 66828U 25280H   25351.33339120 -.01930957  00000+0 -24215-1 0  9997",
        "tle_line2": "2 66828  69.9992 185.8658 0003675 271.6148 174.9549 15.62748066  3633"
      },
      "geometry": {
        "type": "Point",
        "coordinates": [
          110.11403781558374,
          -69.28565784144628
        ]
      }
    },
    {
      "type": "Feature",
      "properties": {
        "norad_id": 66829,
        "name": "STARLINK-36084",
        "group": "last-30-days",
        "lat": -69.6884088329016,
        "lon": 104.7668990881176,
        "alt_km": 389.8950747137724,
        "timestamp": "2025-12-17T19:34:06.801536+00:00",
        "meta_object_name": "STARLINK-36084",
        "meta_object_id": "2025-280J",
        "meta_epoch": "2025-12-17T08:00:04.999680",
        "meta_mean_motion": 15.62750586,
        "meta_eccentricity": 0.0003708,
        "meta_inclination": 69.9992,
        "meta_ra_of_asc_node": 185.8678,
        "meta_arg_of_pericenter": 272.951,
        "meta_mean_anomaly": 171.7025,
        "meta_ephemeris_type": 0,
        "meta_classification_type": "U",
        "meta_norad_cat_id": 66829,
        "meta_element_set_no": 999,
        "meta_rev_at_epoch": 347,
        "meta_bstar": -0.024306911,
        "meta_mean_motion_dot": -0.01937642,
        "meta_mean_motion_ddot": 0,
        "tle_line1": "1 66829U 25280J   25351.33339120 -.01937642  00000+0 -24307-1 0  9998",
        "tle_line2": "2 66829  69.9992 185.8678 0003708 272.9510 171.7025 15.62750586  3476"
      },
      "geometry": {
        "type": "Point",
        "coordinates": [
          104.7668990881176,
          -69.6884088329016
        ]
      }
    },
    {
      "type": "Feature",
      "properties": {
        "norad_id": 66830,
        "name": "STARLINK-35881",
        "group": "last-30-days",
        "lat": -68.72631654731246,
        "lon": 115.21421440473384,
        "alt_km": 389.9017369199746,
        "timestamp": "2025-12-17T19:34:06.801550+00:00",
        "meta_object_name": "STARLINK-35881",
        "meta_object_id": "2025-280K",
        "meta_epoch": "2025-12-17T08:00:04.999680",
        "meta_mean_motion": 15.62751145,
        "meta_eccentricity": 0.0003684,
        "meta_inclination": 69.9994,
        "meta_ra_of_asc_node": 185.8627,
        "meta_arg_of_pericenter": 273.0956,
        "meta_mean_anomaly": 175.3892,
        "meta_ephemeris_type": 0,
        "meta_classification_type": "U",
        "meta_norad_cat_id": 66830,
        "meta_element_set_no": 999,
        "meta_rev_at_epoch": 363,
        "meta_bstar": -0.024280913,
        "meta_mean_motion_dot": -0.01935826,
        "meta_mean_motion_ddot": 0,
        "tle_line1": "1 66830U 25280K   25351.33339120 -.01935826  00000+0 -24281-1 0  9993",
        "tle_line2": "2 66830  69.9994 185.8627 0003684 273.0956 175.3892 15.62751145  3635"
      },
      "geometry": {
        "type": "Point",
        "coordinates": [
          115.21421440473384,
          -68.72631654731246
        ]
      }
    },
    {
      "type": "Feature",
      "properties": {
        "norad_id": 66831,
        "name": "STARLINK-35788",
        "group": "last-30-days",
        "lat": -68.02277595131943,
        "lon": 120.0258685862206,
        "alt_km": 389.90284497282937,
        "timestamp": "2025-12-17T19:34:06.801560+00:00",
        "meta_object_name": "STARLINK-35788",
        "meta_object_id": "2025-280L",
        "meta_epoch": "2025-12-17T08:00:04.999680",
        "meta_mean_motion": 15.6275738,
        "meta_eccentricity": 0.00037195,
        "meta_inclination": 69.9994,
        "meta_ra_of_asc_node": 185.8618,
        "meta_arg_of_pericenter": 274.4254,
        "meta_mean_anomaly": 175.9747,
        "meta_ephemeris_type": 0,
        "meta_classification_type": "U",
        "meta_norad_cat_id": 66831,
        "meta_element_set_no": 999,
        "meta_rev_at_epoch": 363,
        "meta_bstar": -0.024481473,
        "meta_mean_motion_dot": -0.01950395,
        "meta_mean_motion_ddot": 0,
        "tle_line1": "1 66831U 25280L   25351.33339120 -.01950395  00000+0 -24481-1 0  9994",
        "tle_line2": "2 66831  69.9994 185.8618 0003719 274.4254 175.9747 15.62757380  3633"
      },
      "geometry": {
        "type": "Point",
        "coordinates": [
          120.0258685862206,
          -68.02277595131943
        ]
      }
    },
    {
      "type": "Feature",
      "properties": {
        "norad_id": 66832,
        "name": "STARLINK-35768",
        "group": "last-30-days",
        "lat": -67.18175349992629,
        "lon": 124.55331909498078,
        "alt_km": 389.9384002825391,
        "timestamp": "2025-12-17T19:34:06.801570+00:00",
        "meta_object_name": "STARLINK-35768",
        "meta_object_id": "2025-280M",
        "meta_epoch": "2025-12-17T08:00:04.999680",
        "meta_mean_motion": 15.62746878,
        "meta_eccentricity": 0.00036183,
        "meta_inclination": 69.9993,
        "meta_ra_of_asc_node": 185.8582,
        "meta_arg_of_pericenter": 273.4919,
        "meta_mean_anomaly": 178.8277,
        "meta_ephemeris_type": 0,
        "meta_classification_type": "U",
        "meta_norad_cat_id": 66832,
        "meta_element_set_no": 999,
        "meta_rev_at_epoch": 363,
        "meta_bstar": -0.024197607,
        "meta_mean_motion_dot": -0.01929609,
        "meta_mean_motion_ddot": 0,
        "tle_line1": "1 66832U 25280M   25351.33339120 -.01929609  00000+0 -24198-1 0  9994",
        "tle_line2": "2 66832  69.9993 185.8582 0003618 273.4919 178.8277 15.62746878  3638"
      },
      "geometry": {
        "type": "Point",
        "coordinates": [
          124.55331909498078,
          -67.18175349992629
        ]
      }
    },
    {
      "type": "Feature",
      "properties": {
        "norad_id": 66833,
        "name": "STARLINK-35858",
        "group": "last-30-days",
        "lat": -66.22442826444258,
        "lon": 128.745805031956,
        "alt_km": 389.94692140948246,
        "timestamp": "2025-12-17T19:34:06.801580+00:00",
        "meta_object_name": "STARLINK-35858",
        "meta_object_id": "2025-280N",
        "meta_epoch": "2025-12-17T08:00:04.999680",
        "meta_mean_motion": 15.62747226,
        "meta_eccentricity": 0.000361,
        "meta_inclination": 69.9993,
        "meta_ra_of_asc_node": 185.8564,
        "meta_arg_of_pericenter": 272.9309,
        "meta_mean_anomaly": 181.3048,
        "meta_ephemeris_type": 0,
        "meta_classification_type": "U",
        "meta_norad_cat_id": 66833,
        "meta_element_set_no": 999,
        "meta_rev_at_epoch": 363,
        "meta_bstar": -0.02418969,
        "meta_mean_motion_dot": -0.01929067,
        "meta_mean_motion_ddot": 0,
        "tle_line1": "1 66833U 25280N   25351.33339120 -.01929067  00000+0 -24190-1 0  9995",
        "tle_line2": "2 66833  69.9993 185.8564 0003610 272.9309 181.3048 15.62747226  3631"
      },
      "geometry": {
        "type": "Point",
        "coordinates": [
          128.745805031956,
          -66.22442826444258
        ]
      }
    },
    {
      "type": "Feature",
      "properties": {
        "norad_id": 66834,
        "name": "STARLINK-35840",
        "group": "last-30-days",
        "lat": -65.16322920189361,
        "lon": 132.61165066043426,
        "alt_km": 389.9539631678099,
        "timestamp": "2025-12-17T19:34:06.801590+00:00",
        "meta_object_name": "STARLINK-35840",
        "meta_object_id": "2025-280P",
        "meta_epoch": "2025-12-17T08:00:04.999680",
        "meta_mean_motion": 15.62748255,
        "meta_eccentricity": 0.00036148,
        "meta_inclination": 69.9993,
        "meta_ra_of_asc_node": 185.8533,
        "meta_arg_of_pericenter": 272.7994,
        "meta_mean_anomaly": 183.3531,
        "meta_ephemeris_type": 0,
        "meta_classification_type": "U",
        "meta_norad_cat_id": 66834,
        "meta_element_set_no": 999,
        "meta_rev_at_epoch": 363,
        "meta_bstar": -0.024224856,
        "meta_mean_motion_dot": -0.01931619,
        "meta_mean_motion_ddot": 0,
        "tle_line1": "1 66834U 25280P   25351.33339120 -.01931619  00000+0 -24225-1 0  9991",
        "tle_line2": "2 66834  69.9993 185.8533 0003614 272.7994 183.3531 15.62748255  3632"
      },
      "geometry": {
        "type": "Point",
        "coordinates": [
          132.61165066043426,
          -65.16322920189361
        ]
      }
    }
  ]
}